1  7544U 74093A   19202.18276926 -.00000285  00000-0  00000+0 0  9993
2  7544  12.9879 327.6845 0003971  90.7447 267.9501  0.99791203100083
1  7544U 74093A   19203.69910525 -.00000286 +00000-0 +00000-0 0  9992
2  7544 012.9855 327.6677 0003969 091.1226 092.3357 00.99790727100042
1  7544U 74093A   19204.17551486 -.00000286 +00000-0 +00000-0 0  9993
2  7544 012.9847 327.6625 0003960 091.4505 263.1628 00.99790559100042
1  7544U 74093A   19205.18347208 -.00000285  00000-0  00000+0 0  9998
2  7544  12.9831 327.6513 0003947  91.8547 264.8770  0.99790195100116
1  7544U 74093A   19206.70466080 -.00000283 +00000-0 +00000-0 0  9996
2  7544 012.9807 327.6345 0003895 092.7391 090.4931 00.99789657100079
1  7544U 74093A   19207.20601321 -.00000283  00000-0  00000+0 0  9990
2  7544  12.9798 327.6289 0003878  93.0428 270.3049  0.99789502100136
1  7544U 74093A   19208.70466006 -.00000281 +00000-0 +00000-0 0  9994
2  7544 012.9775 327.6122 0003846 093.7640 087.9824 00.99788948100096
1  7544U 74093A   19209.70466036 -.00000280  00000-0  00000+0 0  9996
2  7544  12.9759 327.6012 0003825  94.2149  86.7873  0.99788593100157
1  7544U 74093A   19210.70466174 -.00000278 +00000-0 +00000-0 0  9999
2  7544 012.9744 327.5900 0003801 094.6329 085.6241 00.99788229100113
1  7544U 74093A   19211.70986753 -.00000278 +00000-0 +00000-0 0  9990
2  7544 012.9728 327.5788 0003772 095.0644 086.3152 00.99787845100124
1  7544U 74093A   19211.70986753 -.00000278  00000-0  00000+0 0  9999
2  7544  12.9728 327.5788 0003772  95.0644  86.3152  0.99787845100179
1  7544U 74093A   19212.20965840 -.00000277 +00000-0 +00000-0 0  9999
2  7544 012.9720 327.5733 0003757 095.1951 265.7347 00.99787650100135
1  7544U 74093A   19213.71021632 -.00000277  00000-0  00000+0 0  9997
2  7544  12.9697 327.5566 0003708  95.7527  84.2533  0.99787082100199
1  7544U 74093A   19215.24327515 -.00000274 +00000-0 +00000-0 0  9994
2  7544 012.9674 327.5396 0003648 096.0456 274.7088 00.99786492100165
1  7544U 74093A   19216.24798928 -.00000271 +00000-0 +00000-0 0  9992
2  7544 012.9658 327.5285 0003608 096.2003 275.4943 00.99786115100227
1  7544U 74093A   19217.25259557 -.00000267 +00000-0 +00000-0 0  9999
2  7544 012.9643 327.5175 0003571 096.2745 276.3199 00.99785735100186
1  7544U 74093A   19218.23237425 -.00000262 +00000-0 +00000-0 0  9993
2  7544 012.9628 327.5067 0003533 096.3101 268.2636 00.99785367100192
1  7544U 74093A   19219.24154870 -.00000256  00000-0  00000+0 0  9999
2  7544  12.9614 327.4955 0003495  96.3186 270.7935  0.99785000100253
1  7544U 74093A   19220.25431980 -.00000248 +00000-0 +00000-0 0  9994
2  7544 012.9599 327.4844 0003462 096.2818 274.6588 00.99784623100210
1  7544U 74093A   19221.26021191 -.00000239  00000-0  00000+0 0  9994
2  7544  12.9582 327.4733 0003484  95.9675 276.3290  0.99784259100270
1  7544U 74093A   19222.20425588 -.00000230 +00000-0 +00000-0 0  9999
2  7544 012.9567 327.4629 0003462 095.8861 255.5480 00.99783952100223
1  7544U 74093A   19224.21360556 -.00000211  00000-0  00000+0 0  9993
2  7544  12.9535 327.4406 0003431  95.7765 257.4886  0.99783272100304
1  7544U 74093A   19225.21826334 -.00000200 +00000-0 +00000-0 0  9994
2  7544 012.9519 327.4295 0003418 095.7600 258.4127 00.99782955100255
1  7544U 74093A   19226.38790454 -.00000188  00000-0  00000+0 0  9990
2  7544  12.9499 327.4167 0003408  95.7564 318.5908  0.99782622100322
1  7544U 74093A   19227.27974531 -.00000178 +00000-0 +00000-0 0  9999
2  7544 012.9484 327.4069 0003401 095.8332 278.8920 00.99782375100286
1  7544U 74093A   19228.28799823 -.00000167 +00000-0 +00000-0 0  9998
2  7544 012.9468 327.3958 0003387 095.9372 280.9835 00.99782108100296
1  7544U 74093A   19229.23688821 -.00000157  00000-0  00000+0 0  9997
2  7544  12.9453 327.3854 0003379  96.0797 261.7112  0.99781883100350
1  7544U 74093A   19231.24616606 -.00000133  00000-0  00000+0 0  9997
2  7544  12.9421 327.3635 0003362  96.4855 263.0970  0.99781472100376
1  7544U 74093A   19232.33175858 -.00000120 +00000-0 +00000-0 0  9994
2  7544 012.9403 327.3516 0003350 096.7888 292.7683 00.99781264100335
1  7544U 74093A   19234.26017031 -.00000097 +00000-0 +00000-0 0  9999
2  7544 012.9372 327.3305 0003329 097.3890 264.9066 00.99780996100407
1  7544U 74093A   19235.33374226 -.00000085 +00000-0 +00000-0 0  9997
2  7544 012.9356 327.3187 0003296 097.8043 290.1460 00.99780851100369
1  7544U 74093A   19236.32440521 -.00000075  00000-0  00000+0 0  9997
2  7544  12.9340 327.3078 0003259  98.2160 285.6071  0.99780774100423
1  7544U 74093A   19237.27410383 -.00000065 +00000-0 +00000-0 0  9995
2  7544 012.9325 327.2973 0003222 098.5901 266.3899 00.99780713100387
1  7544U 74093A   19238.41192178 -.00000055  00000-0  00000+0 0  9999
2  7544  12.9307 327.2847 0003205  98.9372 314.7774  0.99780671100444
1  7544U 74093A   19239.28339535 -.00000048 +00000-0 +00000-0 0  9998
2  7544 012.9294 327.2752 0003185 099.1615 267.6088 00.99780637100406
1  7544U 74093A   19240.28590994 -.00000040 +00000-0 +00000-0 0  9990
2  7544 012.9279 327.2642 0003149 099.3844 267.5144 00.99780608100414
1  7544U 74093A   19241.42876090 -.00000033  00000-0  00000+0 0  9992
2  7544  12.9261 327.2516 0003135  99.5191 317.9230  0.99780653100479
1  7544U 74093A   19242.26229913 -.00000027 +00000-0 +00000-0 0  9995
2  7544 012.9248 327.2425 0003079 099.6095 257.2618 00.99780697100423
1  7544U 74093A   19243.28938309 -.00000019 +00000-0 +00000-0 0  9995
2  7544 012.9233 327.2313 0003045 099.5692 266.2564 00.99780719100445
1  7544U 74093A   19244.29528660 -.00000012  00000-0  00000+0 0  9994
2  7544  12.9218 327.2204 0002994  99.4788 267.6938  0.99780791100501
1  7544U 74093A   19245.60011218 -.00000001 +00000-0 +00000-0 0  9995
2  7544 012.9197 327.2062 0002917 099.4032 016.4971 00.99780906100466
1  7544U 74093A   19246.31589181  .00000005  00000-0  00000+0 0  9995
2  7544  12.9186 327.1984 0002885  99.0693 273.9588  0.99780998100521
1  7544U 74093A   19247.32054624 +.00000014 +00000-0 +00000-0 0  9997
2  7544 012.9171 327.1876 0002837 098.7532 275.1745 00.99781138100481
1  7544U 74093A   19248.41595556  .00000024  00000-0  00000+0 0  9992
2  7544  12.9154 327.1757 0002808  98.3893 309.0401  0.99781315100544
1  7544U 74093A   19249.31687066 +.00000033 +00000-0 +00000-0 0  9991
2  7544 012.9140 327.1659 0002784 098.0292 273.0348 00.99781483100505
1  7544U 74093A   19250.43380885  .00000043  00000-0  00000+0 0  9995
2  7544  12.9122 327.1539 0002751  97.5354 314.7642  0.99781683100567
1  7544U 74093A   19251.50515418 +.00000052 +00000-0 +00000-0 0  9997
2  7544 012.9106 327.1424 0002715 097.0433 340.1154 00.99781921100527
1  7544U 74093A   19252.48526105  .00000059  00000-0  00000+0 0  9996
2  7544  12.9091 327.1317 0002712  96.8538 332.3889  0.99782151100581
1  7544U 74093A   19253.28889910 +.00000065 +00000-0 +00000-0 0  9999
2  7544 012.9078 327.1230 0002701 096.7251 261.2105 00.99782381100530
1  7544U 74093A   19254.28077155 +.00000072 +00000-0 +00000-0 0  9998
2  7544 012.9062 327.1123 0002683 096.4779 257.7695 00.99782643100541
1  7544U 74093A   19255.35048689  .00000078  00000-0  00000+0 0  9992
2  7544  12.9045 327.1008 0002671  96.3199 282.2053  0.99782982100611
1  7544U 74093A   19256.44012201 +.00000085 +00000-0 +00000-0 0  9993
2  7544 012.9029 327.0893 0002652 096.1555 313.8027 00.99783308100577
1  7544U 74093A   19257.27896738 +.00000089 +00000-0 +00000-0 0  9994
2  7544 012.9015 327.0803 0002644 096.1524 255.1491 00.99783601100579
1  7544U 74093A   19258.34077059  .00000094  00000-0  00000+0 0  9995
2  7544  12.8998 327.0689 0002628  96.1680 276.5726  0.99783995100647
1  7544U 74093A   19259.36642060 +.00000098 +00000-0 +00000-0 0  9993
2  7544 012.8982 327.0579 0002614 096.2499 284.9430 00.99784375100606
1  7544U 74093A   19260.33792449 +.00000101 +00000-0 +00000-0 0  9994
2  7544 012.8966 327.0474 0002600 096.3388 273.8563 00.99784751100618
1  7544U 74093A   19261.45876368  .00000103  00000-0  00000+0 0  9992
2  7544  12.8948 327.0354 0002589  96.5044 316.3425  0.99785215100674
1  7544U 74093A   19262.34742903 +.00000104 +00000-0 +00000-0 0  9990
2  7544 012.8934 327.0258 0002577 096.6832 275.4097 00.99785576100631
1  7544U 74093A   19263.34534407 +.00000104 +00000-0 +00000-0 0  9999
2  7544 012.8918 327.0149 0002577 097.0174 273.5705 00.99785996100648
1  7544U 74093A   19264.32804648  .00000102  00000-0  00000+0 0  9992
2  7544  12.8902 327.0043 0002567  97.2705 266.3503  0.99786452100706
1  7544U 74093A   19265.32884139 +.00000099 +00000-0 +00000-0 0  9992
2  7544 012.8887 326.9935 0002557 097.4666 265.6867 00.99786881100669
1  7544U 74093A   19266.32911906  .00000094  00000-0  00000+0 0  9990
2  7544  12.8871 326.9826 0002510  97.4580 265.0430  0.99787302100721
1  7544U 74093A   19267.32640051 +.00000088 +00000-0 +00000-0 0  9995
2  7544 012.8856 326.9718 0002475 097.4696 263.3060 00.99787759100683
1  7544U 74093A   19268.44620539  .00000080  00000-0  00000+0 0  9999
2  7544  12.8839 326.9597 0002427  97.2951 305.7733  0.99788265100746
1  7544U 74093A   19269.47312394 +.00000071 +00000-0 +00000-0 0  9991
2  7544 012.8823 326.9487 0002391 097.1063 314.8866 00.99788715100704
1  7544U 74093A   19270.45386800  .00000063  00000-0  00000+0 0  9994
2  7544  12.8808 326.9381 0002343  96.7874 307.5433  0.99789146100766
1  7544U 74093A   19271.47928567 +.00000053 +00000-0 +00000-0 0  9999
2  7544 012.8792 326.9272 0002302 096.2732 316.4468 00.99789605100723
1  7544U 74093A   19272.57758240  .00000044  00000-0  00000+0 0  9999
2  7544  12.8776 326.9154 0002262  95.6494 351.6429  0.99790060100788
1  7544U 74093A   19273.58881858 +.00000035 +00000-0 +00000-0 0  9994
2  7544 012.8760 326.9045 0002214 094.8158 355.7732 00.99790475100743
1  7544U 74093A   19274.59680206  .00000027  00000-0  00000+0 0  9990
2  7544  12.8745 326.8938 0002201  94.2239 358.4953  0.99790889100807
1  7544U 74093A   19275.37920678 +.00000020 +00000-0 +00000-0 0  9991
2  7544 012.8733 326.8854 0002176 093.3801 280.4291 00.99791219100769
